[{"OBJECT_NAME":"MESON-1","OBJECT_ID":"2024-043AK","EPOCH":"2026-03-09T21:36:16.481664","MEAN_MOTION":15.29893494,"ECCENTRICITY":0.00095452,"INCLINATION":97.5469,"RA_OF_ASC_NODE":205.2839,"ARG_OF_PERICENTER":227.1432,"MEAN_ANOMALY":132.9007,"EPHEMERIS_TYPE":0,"CLASSIFICATION_TYPE":"U","NORAD_CAT_ID":59131,"ELEMENT_SET_NO":999,"REV_AT_EPOCH":11189,"BSTAR":0.0002974823,"MEAN_MOTION_DOT":8.544e-5,"MEAN_MOTION_DDOT":0},{"OBJECT_NAME":"STARLINK-34214","OBJECT_ID":"2025-113W","EPOCH":"2026-03-09T12:01:47.501472","MEAN_MOTION":15.30212674,"ECCENTRICITY":0.00014369,"INCLINATION":53.1591,"RA_OF_ASC_NODE":92.19,"ARG_OF_PERICENTER":54.132,"MEAN_ANOMALY":305.9814,"EPHEMERIS_TYPE":0,"CLASSIFICATION_TYPE":"U","NORAD_CAT_ID":64190,"ELEMENT_SET_NO":999,"REV_AT_EPOCH":4503,"BSTAR":0.00094523194,"MEAN_MOTION_DOT":0.00027751,"MEAN_MOTION_DDOT":0}]
